NORAD_CAT_ID,OBJECT_NAME,OBJECT_TYPE,EPOCH,MEAN_MOTION,ECCENTRICITY,INCLINATION,RA_OF_ASC_NODE,ARG_OF_PERICENTER,MEAN_ANOMALY,BSTAR,MEAN_MOTION_DOT,MEAN_MOTION_DDOT,TLE_LINE0,TLE_LINE1,TLE_LINE2,SEMIMAJOR_AXIS,PERIOD,APOGEE,PERIGEE,DECAYED
54187.0,STARLINK-5240,PAYLOAD,2024-04-18 13:22:10,15.08843277,0.000147,53.2167,222.0709,62.2454,297.8687,0.00081951,0.0001278,0.0,0 STARLINK-5240,1 54187U 22141AG  24109.55707146  .00012780  00000-0  81951-3 0  9991,2 54187  53.2167 222.0709 0001470  62.2454 297.8687 15.08843277 81672,6917.87,95.437,540.752,538.718,0.0
54187.0,STARLINK-5240,PAYLOAD,2024-04-19 13:12:57,15.08857834,0.0002163,53.2163,217.6108,56.3795,303.7403,0.00036414,5.515e-05,0.0,0 STARLINK-5240,1 54187U 22141AG  24110.55066503  .00005515  00000-0  36414-3 0  9990,2 54187  53.2163 217.6108 0002163  56.3795 303.7403 15.08857834 82053,6917.826,95.436,541.187,538.195,0.0
54187.0,STARLINK-5240,PAYLOAD,2024-04-19 14:48:20,15.08869471,0.0001621,53.2166,217.3104,69.4011,290.7155,0.00087277,0.00013641,0.0,0 STARLINK-5240,1 54187U 22141AG  24110.61690129  .00013641  00000-0  87277-3 0  9996,2 54187  53.2166 217.3104 0001621  69.4011 290.7155 15.08869471 81837,6917.79,95.436,540.777,538.534,0.0
54187.0,STARLINK-5240,PAYLOAD,2024-04-20 13:03:44,15.088465,0.0002042,53.2164,213.1514,62.9668,297.1532,6.388e-05,7.29e-06,0.0,0 STARLINK-5240,1 54187U 22141AG  24111.54426420  .00000729  00000-0  63880-4 0  9998,2 54187  53.2164 213.1514 0002042  62.9668 297.1532 15.08846500 82208,6917.861,95.437,541.138,538.313,0.0
54187.0,STARLINK-5240,PAYLOAD,2024-04-21 12:54:31,15.0883773,0.0001753,53.2174,208.6854,107.4339,252.6845,0.00013047,1.789e-05,0.0,0 STARLINK-5240,1 54187U 22141AG  24112.53786706  .00001789  00000-0  13047-3 0  9990,2 54187  53.2174 208.6854 0001753 107.4339 252.6845 15.08837730 82122,6917.887,95.438,540.965,538.54,0.0
54187.0,STARLINK-5240,PAYLOAD,2024-04-21 16:05:18,15.08836831,0.0001739,53.217,208.0882,115.513,244.6042,0.00053127,8.177e-05,0.0,0 STARLINK-5240,1 54187U 22141AG  24112.67034916  .00008177  00000-0  53127-3 0  9995,2 54187  53.2170 208.0882 0001739 115.5130 244.6042 15.08836831 82149,6917.89,95.438,540.958,538.552,0.0
54187.0,STARLINK-5240,PAYLOAD,2024-04-22 11:09:55,15.08855489,0.0001647,53.2187,204.5216,95.4018,264.7162,0.00078042,0.00012159,0.0,0 STARLINK-5240,1 54187U 22141AG  24113.46522465  .00012159  00000-0  78042-3 0  9992,2 54187  53.2187 204.5216 0001647  95.4018 264.7162 15.08855489 82492,6917.833,95.437,540.837,538.559,0.0
54187.0,STARLINK-5240,PAYLOAD,2024-04-22 12:45:18,15.08871732,0.0001734,53.217,204.223,118.7392,241.3775,0.0011122,0.00017472,0.0,0 STARLINK-5240,1 54187U 22141AG  24113.53145988  .00017472  00000-0  11122-2 0  9999,2 54187  53.2170 204.2230 0001734 118.7392 241.3775 15.08871732 82500,6917.783,95.436,540.848,538.449,0.0
54187.0,STARLINK-5240,PAYLOAD,2024-04-23 12:36:05,15.08843598,0.0001849,53.217,199.7641,114.5027,245.6158,-0.00011144,-2.061e-05,0.0,0 STARLINK-5240,1 54187U 22141AG  24114.52505797 -.00002061  00000-0 -11144-3 0  9992,2 54187  53.2170 199.7641 0001849 114.5027 245.6158 15.08843598 82657,6917.869,95.437,541.014,538.455,0.0
54187.0,STARLINK-5240,PAYLOAD,2024-04-24 12:26:53,15.08829838,0.0001837,53.2176,195.3088,97.2812,262.8389,-8.4324e-06,-4.22e-06,0.0,0 STARLINK-5240,1 54187U 22141AG  24115.51867249 -.00000422  00000-0 -84324-5 0  9996,2 54187  53.2176 195.3088 0001837  97.2812 262.8389 15.08829838 82801,6917.911,95.438,541.047,538.506,0.0
54187.0,STARLINK-5240,PAYLOAD,2024-04-25 12:17:40,15.08850524,0.0001857,53.2167,190.8507,93.5288,266.5916,0.00069803,0.00010842,0.0,0 STARLINK-5240,1 54187U 22141AG  24116.51227472  .00010842  00000-0  69803-3 0  9993,2 54187  53.2167 190.8507 0001857  93.5288 266.5916 15.08850524 82954,6917.848,95.437,540.998,538.429,0.0
54187.0,STARLINK-5240,PAYLOAD,2024-04-26 04:11:31,15.08852316,0.0001924,53.2166,187.877,75.2319,284.8886,0.0004094,6.236e-05,0.0,0 STARLINK-5240,1 54187U 22141AG  24117.17467259  .00006236  00000-0  40940-3 0  9998,2 54187  53.2166 187.8770 0001924  75.2319 284.8886 15.08852316 83050,6917.843,95.437,541.039,538.377,0.0
54187.0,STARLINK-5240,PAYLOAD,2024-04-26 12:08:27,15.08852551,0.0001544,53.2156,186.3867,85.2657,274.8512,0.00033918,5.116e-05,0.0,0 STARLINK-5240,1 54187U 22141AG  24117.50587029  .00005116  00000-0  33918-3 0  9996,2 54187  53.2156 186.3867 0001544  85.2657 274.8512 15.08852551 82879,6917.842,95.437,540.775,538.639,0.0
54187.0,STARLINK-5240,PAYLOAD,2024-04-27 04:02:18,15.08849498,0.0001559,53.2153,183.4148,89.3955,270.7215,0.00021004,3.057e-05,0.0,0 STARLINK-5240,1 54187U 22141AG  24118.16826767  .00003057  00000-0  21004-3 0  9999,2 54187  53.2153 183.4148 0001559  89.3955 270.7215 15.08849498 83207,6917.851,95.437,540.795,538.638,0.0
54187.0,STARLINK-5240,PAYLOAD,2024-04-27 11:59:13,15.08855339,0.000158,53.216,181.9298,89.2818,270.8355,0.00023805,3.504e-05,0.0,0 STARLINK-5240,1 54187U 22141AG  24118.49946340  .00003504  00000-0  23805-3 0  9993,2 54187  53.2160 181.9298 0001580  89.2818 270.8355 15.08855339 83022,6917.834,95.437,540.792,538.605,0.0
54187.0,STARLINK-5240,PAYLOAD,2024-04-27 21:31:33,15.0883961,0.0001746,53.2166,180.1421,78.3386,281.7802,-6.2027e-06,-3.87e-06,0.0,0 STARLINK-5240,1 54187U 22141AG  24118.89691068 -.00000387  00000-0 -62027-5 0  9990,2 54187  53.2166 180.1421 0001746  78.3386 281.7802 15.08839610 83088,6917.882,95.438,540.954,538.539,0.0
54187.0,STARLINK-5240,PAYLOAD,2024-04-28 03:53:07,15.08797603,0.0001918,53.2154,178.9548,78.475,281.6457,-0.00073264,-0.00011916,0.0,0 STARLINK-5240,1 54187U 22141AG  24119.16188988 -.00011916  00000-0 -73264-3 0  9996,2 54187  53.2154 178.9548 0001918  78.4750 281.6457 15.08797603 83357,6918.01,95.44,541.202,538.548,0.0
54187.0,STARLINK-5240,PAYLOAD,2024-04-28 10:14:39,15.08808567,0.0001307,53.2153,177.764,90.2976,269.8166,-0.00040694,-6.753e-05,0.0,0 STARLINK-5240,1 54187U 22141AG  24119.42684994 -.00006753  00000-0 -40694-3 0  9997,2 54187  53.2153 177.7640 0001307  90.2976 269.8166 15.08808567 83391,6917.976,95.44,540.746,538.937,0.0
54187.0,STARLINK-5240,PAYLOAD,2024-04-28 21:22:21,15.08831106,0.0001385,53.216,175.6841,76.1917,283.9229,0.00013747,1.9e-05,0.0,0 STARLINK-5240,1 54187U 22141AG  24119.89052653  .00001900  00000-0  13747-3 0  9995,2 54187  53.2160 175.6841 0001385  76.1917 283.9229 15.08831106 83238,6917.908,95.438,540.731,538.814,0.0
54187.0,STARLINK-5240,PAYLOAD,2024-04-29 03:43:53,15.08837448,0.0001266,53.2152,174.4949,69.1884,290.9244,0.00016763,2.381e-05,0.0,0 STARLINK-5240,1 54187U 22141AG  24120.15548447  .00002381  00000-0  16763-3 0  9992,2 54187  53.2152 174.4949 0001266  69.1884 290.9244 15.08837448 83508,6917.888,95.438,540.629,538.877,0.0
54187.0,STARLINK-5240,PAYLOAD,2024-04-29 10:05:26,15.08847971,0.0001244,53.216,173.3036,81.7784,278.3349,0.00038697,5.877e-05,0.0,0 STARLINK-5240,1 54187U 22141AG  24120.42044045  .00005877  00000-0  38697-3 0  9990,2 54187  53.2160 173.3036 0001244  81.7784 278.3349 15.08847971 83549,6917.856,95.437,540.582,538.86,0.0
54187.0,STARLINK-5240,PAYLOAD,2024-04-30 03:34:40,15.08846071,0.0001471,53.2149,170.0324,76.9909,283.1247,0.00060419,9.342e-05,0.0,0 STARLINK-5240,1 54187U 22141AG  24121.14908424  .00009342  00000-0  60419-3 0  9998,2 54187  53.2149 170.0324 0001471  76.9909 283.1247 15.08846071 83650,6917.862,95.437,540.744,538.709,0.0
54187.0,STARLINK-5240,PAYLOAD,2024-04-30 09:56:13,15.0885536,0.0001414,53.2156,168.8421,80.8088,279.3064,0.00058407,9.024e-05,0.0,0 STARLINK-5240,1 54187U 22141AG  24121.41403946  .00009024  00000-0  58407-3 0  9998,2 54187  53.2156 168.8421 0001414  80.8088 279.3064 15.08855360 83464,6917.833,95.437,540.677,538.72,0.0
54187.0,STARLINK-5240,PAYLOAD,2024-05-01 09:46:59,15.08849453,0.0001599,53.2156,164.3816,83.949,276.1684,-3.019e-05,-7.69e-06,0.0,0 STARLINK-5240,1 54187U 22141AG  24122.40763049 -.00000769  00000-0 -30190-4 0  9990,2 54187  53.2156 164.3816 0001599  83.9490 276.1684 15.08849453 83849,6917.851,95.437,540.823,538.61,0.0
54187.0,STARLINK-5240,PAYLOAD,2024-05-01 19:19:18,15.08844537,0.0001508,53.2148,162.5966,81.8534,278.2629,-7.5169e-05,-1.484e-05,0.0,0 STARLINK-5240,1 54187U 22141AG  24122.80507200 -.00001484  00000-0 -75169-4 0  9999,2 54187  53.2148 162.5966 0001508  81.8534 278.2629 15.08844537 83673,6917.867,95.437,540.775,538.688,0.0
54187.0,STARLINK-5240,PAYLOAD,2024-05-02 03:16:14,15.08838292,0.0001624,53.2164,161.1112,85.4321,274.6857,-0.00012976,-2.352e-05,0.0,0 STARLINK-5240,1 54187U 22141AG  24123.13627487 -.00002352  00000-0 -12976-3 0  9997,2 54187  53.2164 161.1112 0001624  85.4321 274.6857 15.08838292 83957,6917.886,95.438,540.874,538.627,0.0
54187.0,STARLINK-5240,PAYLOAD,2024-05-02 09:37:47,15.08838613,0.0001396,53.2157,159.9224,92.6965,267.4187,-5.1877e-05,-1.113e-05,0.0,0 STARLINK-5240,1 54187U 22141AG  24123.40123934 -.00001113  00000-0 -51877-4 0  9993,2 54187  53.2157 159.9224 0001396  92.6965 267.4187 15.08838613 83760,6917.885,95.438,540.715,538.784,0.0
54187.0,STARLINK-5240,PAYLOAD,2024-05-03 11:03:56,15.08847668,0.0001475,53.2146,155.1633,94.3339,265.7822,0.00020935,3.046e-05,0.0,0 STARLINK-5240,1 54187U 22141AG  24124.46106680  .00003046  00000-0  20935-3 0  9994,2 54187  53.2146 155.1633 0001475  94.3339 265.7822 15.08847668 84153,6917.857,95.437,540.742,538.702,0.0
54187.0,STARLINK-5240,PAYLOAD,2024-05-03 19:00:52,15.08836932,0.0001613,53.2144,153.6764,83.156,276.9616,0.00010351,1.36e-05,0.0,0 STARLINK-5240,1 54187U 22141AG  24124.79227699  .00001360  00000-0  10351-3 0  9992,2 54187  53.2144 153.6764 0001613  83.1560 276.9616 15.08836932 84208,6917.89,95.438,540.871,538.639,0.0
54187.0,STARLINK-5240,PAYLOAD,2024-05-04 09:19:21,15.08824013,0.0001253,53.2141,150.9994,80.3927,279.7206,-8.251e-05,-1.6e-05,0.0,0 STARLINK-5240,1 54187U 22141AG  24125.38844613 -.00001600  00000-0 -82510-4 0  9995,2 54187  53.2141 150.9994 0001253  80.3927 279.7206 15.08824013 84298,6917.929,95.439,540.661,538.927,0.0
